[Satellite]
VERSION=1.1
NAME=FORMOSAT-3 FM4
NICKNAME=FORMOSAT-3 FM4
TLE1=1 29051U 06011E   20157.87423920  .00000046  00000-0  34097-4 0  9992
TLE2=2 29051  72.0047 118.2091 0069754 303.9906  55.4615 14.28812915740538
STATUS=0
